ISS OBJECT XT           
1 66907U 98067XT  26108.55236295  .00495385  00000+0  16654-2 0  9999
2 66907  51.6202 219.7528 0011409 328.8979  31.1349 15.88181300 21471
ISS OBJECT XU           
1 66908U 98067XU  26108.54332476  .00471816  93643-4  16457-2 0  9991
2 66908  51.6202 219.6891 0011222 327.7702  32.2616 15.88666942 21478
SILVERSAT               
1 66909U 98067XV  26108.99704291  .01409087  12535-2  17815-2 0  9999
2 66909  51.6119 214.3984 0014682 336.6352  23.3992 16.06876520 21580
ISS OBJECT XW           
1 66910U 98067XW  26108.59179369  .00384682  00000+0  15688-2 0  9998
2 66910  51.6188 220.0128 0010259 322.9849  37.0445 15.84493607 21476
ISS OBJECT XY           
1 66912U 98067XY  26109.30461101  .00123629  00000+0  89202-3 0  9994
2 66912  51.6240 220.3377 0007192 323.3603  36.6902 15.72608129 21524
KNACKSAT-2              
1 67683U 98067XZ  26109.06014733  .00034712  00000+0  50937-3 0  9995
2 67683  51.6309 230.7388 0011822 338.3227  21.7262 15.55107935 11068
CORAL                   
1 67684U 98067YA  26109.04786094  .00085111  00000+0  96826-3 0  9996
2 67684  51.6284 229.1531 0015552 330.9310  29.0816 15.61415252 11087
GXIBA-1                 
1 67685U 98067YB  26108.65570008  .00048570  00000+0  68906-3 0  9995
2 67685  51.6300 232.5384 0013769 333.8098  26.2195 15.55840305 11009
UITMSAT-2               
1 67686U 98067YC  26108.62475503  .00064016  00000+0  85865-3 0  9993
2 67686  51.6301 232.3327 0010594 313.2925  46.7183 15.57278933 11008
HMU-SAT2                
1 67687U 98067YD  26109.04995329  .00038650  00000+0  55750-3 0  9999
2 67687  51.6312 230.6749 0009959 316.3767  43.6436 15.55546177 10980
LEOPARD                 
1 67688U 98067YE  26108.63886078  .00048297  00000+0  66704-3 0  9993
2 67688  51.6304 232.4286 0010218 313.8961  46.1186 15.56617401 10920
CREW DRAGON 12          
1 67796U 26031A   26109.16735171  .00008294  00000+0  15944-3 0  9994
2 67796  51.6330 232.2024 0006622 324.6287  35.4262 15.48825421562676
PROGRESS-MS 33          
1 68319U 26058A   26109.16735171  .00008294  00000+0  15944-3 0  9995
2 68319  51.6330 232.2024 0006622 324.6287  35.4262 15.48825421  3162
CYGNUS NG-24            
1 68689U 26079A   26109.16735171  .00008294  00000+0  15944-3 0  9998
2 68689  51.6330 232.2024 0006622 324.6287  35.4262 15.48825421  1159
