[{"OBJECT_NAME":"ISS OBJECT XT","OBJECT_ID":"1998-067XT","EPOCH":"2026-04-18T13:15:24.158880","MEAN_MOTION":15.881813,"ECCENTRICITY":0.00114094,"INCLINATION":51.6202,"RA_OF_ASC_NODE":219.7528,"ARG_OF_PERICENTER":328.8979,"MEAN_ANOMALY":31.1349,"EPHEMERIS_TYPE":0,"CLASSIFICATION_TYPE":"U","NORAD_CAT_ID":66907,"ELEMENT_SET_NO":999,"REV_AT_EPOCH":2147,"BSTAR":0.0016653798,"MEAN_MOTION_DOT":0.00495385,"MEAN_MOTION_DDOT":0},{"OBJECT_NAME":"ISS OBJECT XU","OBJECT_ID":"1998-067XU","EPOCH":"2026-04-18T13:02:23.259264","MEAN_MOTION":15.88666942,"ECCENTRICITY":0.00112228,"INCLINATION":51.6202,"RA_OF_ASC_NODE":219.6891,"ARG_OF_PERICENTER":327.7702,"MEAN_ANOMALY":32.2616,"EPHEMERIS_TYPE":0,"CLASSIFICATION_TYPE":"U","NORAD_CAT_ID":66908,"ELEMENT_SET_NO":999,"REV_AT_EPOCH":2147,"BSTAR":0.0016457081,"MEAN_MOTION_DOT":0.00471816,"MEAN_MOTION_DDOT":9.3642722e-5},{"OBJECT_NAME":"SILVERSAT","OBJECT_ID":"1998-067XV","EPOCH":"2026-04-18T23:55:44.507424","MEAN_MOTION":16.0687652,"ECCENTRICITY":0.00146821,"INCLINATION":51.6119,"RA_OF_ASC_NODE":214.3984,"ARG_OF_PERICENTER":336.6352,"MEAN_ANOMALY":23.3992,"EPHEMERIS_TYPE":0,"CLASSIFICATION_TYPE":"U","NORAD_CAT_ID":66909,"ELEMENT_SET_NO":999,"REV_AT_EPOCH":2158,"BSTAR":0.0017814847,"MEAN_MOTION_DOT":0.01409087,"MEAN_MOTION_DDOT":0.0012534541},{"OBJECT_NAME":"ISS OBJECT XW","OBJECT_ID":"1998-067XW","EPOCH":"2026-04-18T14:12:10.974816","MEAN_MOTION":15.84493607,"ECCENTRICITY":0.0010259,"INCLINATION":51.6188,"RA_OF_ASC_NODE":220.0128,"ARG_OF_PERICENTER":322.9849,"MEAN_ANOMALY":37.0445,"EPHEMERIS_TYPE":0,"CLASSIFICATION_TYPE":"U","NORAD_CAT_ID":66910,"ELEMENT_SET_NO":999,"REV_AT_EPOCH":2147,"BSTAR":0.0015688,"MEAN_MOTION_DOT":0.00384682,"MEAN_MOTION_DDOT":0},{"OBJECT_NAME":"ISS OBJECT XY","OBJECT_ID":"1998-067XY","EPOCH":"2026-04-19T07:18:38.391264","MEAN_MOTION":15.72608129,"ECCENTRICITY":0.00071926,"INCLINATION":51.624,"RA_OF_ASC_NODE":220.3377,"ARG_OF_PERICENTER":323.3603,"MEAN_ANOMALY":36.6902,"EPHEMERIS_TYPE":0,"CLASSIFICATION_TYPE":"U","NORAD_CAT_ID":66912,"ELEMENT_SET_NO":999,"REV_AT_EPOCH":2152,"BSTAR":0.00089202153,"MEAN_MOTION_DOT":0.00123629,"MEAN_MOTION_DDOT":0},{"OBJECT_NAME":"KNACKSAT-2","OBJECT_ID":"1998-067XZ","EPOCH":"2026-04-19T01:26:36.729312","MEAN_MOTION":15.55107935,"ECCENTRICITY":0.00118227,"INCLINATION":51.6309,"RA_OF_ASC_NODE":230.7388,"ARG_OF_PERICENTER":338.3227,"MEAN_ANOMALY":21.7262,"EPHEMERIS_TYPE":0,"CLASSIFICATION_TYPE":"U","NORAD_CAT_ID":67683,"ELEMENT_SET_NO":999,"REV_AT_EPOCH":1106,"BSTAR":0.00050936963,"MEAN_MOTION_DOT":0.00034712,"MEAN_MOTION_DDOT":0},{"OBJECT_NAME":"CORAL","OBJECT_ID":"1998-067YA","EPOCH":"2026-04-19T01:08:55.185216","MEAN_MOTION":15.61415252,"ECCENTRICITY":0.00155523,"INCLINATION":51.6284,"RA_OF_ASC_NODE":229.1531,"ARG_OF_PERICENTER":330.931,"MEAN_ANOMALY":29.0816,"EPHEMERIS_TYPE":0,"CLASSIFICATION_TYPE":"U","NORAD_CAT_ID":67684,"ELEMENT_SET_NO":999,"REV_AT_EPOCH":1108,"BSTAR":0.00096826438,"MEAN_MOTION_DOT":0.00085111,"MEAN_MOTION_DDOT":0},{"OBJECT_NAME":"GXIBA-1","OBJECT_ID":"1998-067YB","EPOCH":"2026-04-18T15:44:12.486912","MEAN_MOTION":15.55840305,"ECCENTRICITY":0.00137693,"INCLINATION":51.63,"RA_OF_ASC_NODE":232.5384,"ARG_OF_PERICENTER":333.8098,"MEAN_ANOMALY":26.2195,"EPHEMERIS_TYPE":0,"CLASSIFICATION_TYPE":"U","NORAD_CAT_ID":67685,"ELEMENT_SET_NO":999,"REV_AT_EPOCH":1100,"BSTAR":0.00068905659,"MEAN_MOTION_DOT":0.0004857,"MEAN_MOTION_DDOT":0},{"OBJECT_NAME":"UITMSAT-2","OBJECT_ID":"1998-067YC","EPOCH":"2026-04-18T14:59:38.834592","MEAN_MOTION":15.57278933,"ECCENTRICITY":0.0010594,"INCLINATION":51.6301,"RA_OF_ASC_NODE":232.3327,"ARG_OF_PERICENTER":313.2925,"MEAN_ANOMALY":46.7183,"EPHEMERIS_TYPE":0,"CLASSIFICATION_TYPE":"U","NORAD_CAT_ID":67686,"ELEMENT_SET_NO":999,"REV_AT_EPOCH":1100,"BSTAR":0.00085865,"MEAN_MOTION_DOT":0.00064016,"MEAN_MOTION_DDOT":0},{"OBJECT_NAME":"HMU-SAT2","OBJECT_ID":"1998-067YD","EPOCH":"2026-04-19T01:11:55.964256","MEAN_MOTION":15.55546177,"ECCENTRICITY":0.00099599,"INCLINATION":51.6312,"RA_OF_ASC_NODE":230.6749,"ARG_OF_PERICENTER":316.3767,"MEAN_ANOMALY":43.6436,"EPHEMERIS_TYPE":0,"CLASSIFICATION_TYPE":"U","NORAD_CAT_ID":67687,"ELEMENT_SET_NO":999,"REV_AT_EPOCH":1098,"BSTAR":0.00055749756,"MEAN_MOTION_DOT":0.0003865,"MEAN_MOTION_DDOT":0},{"OBJECT_NAME":"LEOPARD","OBJECT_ID":"1998-067YE","EPOCH":"2026-04-18T15:19:57.571392","MEAN_MOTION":15.56617401,"ECCENTRICITY":0.0010218,"INCLINATION":51.6304,"RA_OF_ASC_NODE":232.4286,"ARG_OF_PERICENTER":313.8961,"MEAN_ANOMALY":46.1186,"EPHEMERIS_TYPE":0,"CLASSIFICATION_TYPE":"U","NORAD_CAT_ID":67688,"ELEMENT_SET_NO":999,"REV_AT_EPOCH":1092,"BSTAR":0.00066704,"MEAN_MOTION_DOT":0.00048297,"MEAN_MOTION_DDOT":0},{"OBJECT_NAME":"CREW DRAGON 12","OBJECT_ID":"2026-031A","EPOCH":"2026-04-19T04:00:59.187744","MEAN_MOTION":15.48825421,"ECCENTRICITY":0.00066223,"INCLINATION":51.633,"RA_OF_ASC_NODE":232.2024,"ARG_OF_PERICENTER":324.6287,"MEAN_ANOMALY":35.4262,"EPHEMERIS_TYPE":0,"CLASSIFICATION_TYPE":"U","NORAD_CAT_ID":67796,"ELEMENT_SET_NO":999,"REV_AT_EPOCH":56267,"BSTAR":0.00015944184,"MEAN_MOTION_DOT":8.294e-5,"MEAN_MOTION_DDOT":0},{"OBJECT_NAME":"PROGRESS-MS 33","OBJECT_ID":"2026-058A","EPOCH":"2026-04-19T04:00:59.187744","MEAN_MOTION":15.48825421,"ECCENTRICITY":0.00066223,"INCLINATION":51.633,"RA_OF_ASC_NODE":232.2024,"ARG_OF_PERICENTER":324.6287,"MEAN_ANOMALY":35.4262,"EPHEMERIS_TYPE":0,"CLASSIFICATION_TYPE":"U","NORAD_CAT_ID":68319,"ELEMENT_SET_NO":999,"REV_AT_EPOCH":316,"BSTAR":0.00015944184,"MEAN_MOTION_DOT":8.294e-5,"MEAN_MOTION_DDOT":0},{"OBJECT_NAME":"CYGNUS NG-24","OBJECT_ID":"2026-079A","EPOCH":"2026-04-19T04:00:59.187744","MEAN_MOTION":15.48825421,"ECCENTRICITY":0.00066223,"INCLINATION":51.633,"RA_OF_ASC_NODE":232.2024,"ARG_OF_PERICENTER":324.6287,"MEAN_ANOMALY":35.4262,"EPHEMERIS_TYPE":0,"CLASSIFICATION_TYPE":"U","NORAD_CAT_ID":68689,"ELEMENT_SET_NO":999,"REV_AT_EPOCH":115,"BSTAR":0.00015944184,"MEAN_MOTION_DOT":8.294e-5,"MEAN_MOTION_DDOT":0}]
